CCSDS_OMM_VERS = 2.0
CREATION_DATE  = 
ORIGINATOR     = 

OBJECT_NAME    = STARLINK-35424
OBJECT_ID      = 2025-262E
CENTER_NAME    = EARTH
REF_FRAME      = TEME
TIME_SYSTEM    = UTC
MEAN_ELEMENT_THEORY = SGP/SGP4

EPOCH          = 2025-12-01T20:00:01.999008
MEAN_MOTION    = 15.67291476
ECCENTRICITY   = .0001421
INCLINATION    = 42.9990
RA_OF_ASC_NODE = 135.1648
ARG_OF_PERICENTER = 281.8222
MEAN_ANOMALY   = 211.3177

EPHEMERIS_TYPE = 0
CLASSIFICATION_TYPE = U
NORAD_CAT_ID   = 66460
ELEMENT_SET_NO = 999
REV_AT_EPOCH   = 388
BSTAR          = -.20969E-1
MEAN_MOTION_DOT = -.2040104E-1
MEAN_MOTION_DDOT = 0

CCSDS_OMM_VERS = 2.0
CREATION_DATE  = 
ORIGINATOR     = 

OBJECT_NAME    = STARLINK-35132
OBJECT_ID      = 2025-262F
CENTER_NAME    = EARTH
REF_FRAME      = TEME
TIME_SYSTEM    = UTC
MEAN_ELEMENT_THEORY = SGP/SGP4

EPOCH          = 2025-12-01T20:00:01.999008
MEAN_MOTION    = 15.67300694
ECCENTRICITY   = .0001431
INCLINATION    = 42.9991
RA_OF_ASC_NODE = 135.1602
ARG_OF_PERICENTER = 285.1170
MEAN_ANOMALY   = 209.9306

EPHEMERIS_TYPE = 0
CLASSIFICATION_TYPE = U
NORAD_CAT_ID   = 66461
ELEMENT_SET_NO = 999
REV_AT_EPOCH   = 388
BSTAR          = -.21051E-1
MEAN_MOTION_DOT = -.2047767E-1
MEAN_MOTION_DDOT = 0

CCSDS_OMM_VERS = 2.0
CREATION_DATE  = 
ORIGINATOR     = 

OBJECT_NAME    = STARLINK-35499
OBJECT_ID      = 2025-262G
CENTER_NAME    = EARTH
REF_FRAME      = TEME
TIME_SYSTEM    = UTC
MEAN_ELEMENT_THEORY = SGP/SGP4

EPOCH          = 2025-12-01T20:00:01.999008
MEAN_MOTION    = 15.67302388
ECCENTRICITY   = .0001382
INCLINATION    = 42.9992
RA_OF_ASC_NODE = 135.1548
ARG_OF_PERICENTER = 283.3953
MEAN_ANOMALY   = 213.5719

EPHEMERIS_TYPE = 0
CLASSIFICATION_TYPE = U
NORAD_CAT_ID   = 66462
ELEMENT_SET_NO = 999
REV_AT_EPOCH   = 388
BSTAR          = -.2111E-1
MEAN_MOTION_DOT = -.2052852E-1
MEAN_MOTION_DDOT = 0

CCSDS_OMM_VERS = 2.0
CREATION_DATE  = 
ORIGINATOR     = 

OBJECT_NAME    = STARLINK-35463
OBJECT_ID      = 2025-262H
CENTER_NAME    = EARTH
REF_FRAME      = TEME
TIME_SYSTEM    = UTC
MEAN_ELEMENT_THEORY = SGP/SGP4

EPOCH          = 2025-12-01T20:00:01.999008
MEAN_MOTION    = 15.67300767
ECCENTRICITY   = .0001334
INCLINATION    = 42.9988
RA_OF_ASC_NODE = 135.1447
ARG_OF_PERICENTER = 286.2742
MEAN_ANOMALY   = 214.5301

EPHEMERIS_TYPE = 0
CLASSIFICATION_TYPE = U
NORAD_CAT_ID   = 66463
ELEMENT_SET_NO = 999
REV_AT_EPOCH   = 388
BSTAR          = -.21119E-1
MEAN_MOTION_DOT = -.2053442E-1
MEAN_MOTION_DDOT = 0

CCSDS_OMM_VERS = 2.0
CREATION_DATE  = 
ORIGINATOR     = 

OBJECT_NAME    = STARLINK-35435
OBJECT_ID      = 2025-262J
CENTER_NAME    = EARTH
REF_FRAME      = TEME
TIME_SYSTEM    = UTC
MEAN_ELEMENT_THEORY = SGP/SGP4

EPOCH          = 2025-12-01T20:00:01.999008
MEAN_MOTION    = 15.67299364
ECCENTRICITY   = .0001425
INCLINATION    = 42.9992
RA_OF_ASC_NODE = 135.1501
ARG_OF_PERICENTER = 287.5821
MEAN_ANOMALY   = 211.3010

EPHEMERIS_TYPE = 0
CLASSIFICATION_TYPE = U
NORAD_CAT_ID   = 66464
ELEMENT_SET_NO = 999
REV_AT_EPOCH   = 388
BSTAR          = -.21047E-1
MEAN_MOTION_DOT = -.2047268E-1
MEAN_MOTION_DDOT = 0

CCSDS_OMM_VERS = 2.0
CREATION_DATE  = 
ORIGINATOR     = 

OBJECT_NAME    = STARLINK-35448
OBJECT_ID      = 2025-262K
CENTER_NAME    = EARTH
REF_FRAME      = TEME
TIME_SYSTEM    = UTC
MEAN_ELEMENT_THEORY = SGP/SGP4

EPOCH          = 2025-12-01T20:00:01.999008
MEAN_MOTION    = 15.67300171
ECCENTRICITY   = .0001359
INCLINATION    = 42.9991
RA_OF_ASC_NODE = 135.1354
ARG_OF_PERICENTER = 283.6482
MEAN_ANOMALY   = 220.9896

EPHEMERIS_TYPE = 0
CLASSIFICATION_TYPE = U
NORAD_CAT_ID   = 66465
ELEMENT_SET_NO = 999
REV_AT_EPOCH   = 388
BSTAR          = -.21101E-1
MEAN_MOTION_DOT = -.205187E-1
MEAN_MOTION_DDOT = 0

CCSDS_OMM_VERS = 2.0
CREATION_DATE  = 
ORIGINATOR     = 

OBJECT_NAME    = STARLINK-35388
OBJECT_ID      = 2025-262L
CENTER_NAME    = EARTH
REF_FRAME      = TEME
TIME_SYSTEM    = UTC
MEAN_ELEMENT_THEORY = SGP/SGP4

EPOCH          = 2025-12-01T20:00:01.999008
MEAN_MOTION    = 15.67299934
ECCENTRICITY   = .0001396
INCLINATION    = 42.9991
RA_OF_ASC_NODE = 135.1302
ARG_OF_PERICENTER = 284.7193
MEAN_ANOMALY   = 221.8313

EPHEMERIS_TYPE = 0
CLASSIFICATION_TYPE = U
NORAD_CAT_ID   = 66466
ELEMENT_SET_NO = 999
REV_AT_EPOCH   = 388
BSTAR          = -.21046E-1
MEAN_MOTION_DOT = -.2047229E-1
MEAN_MOTION_DDOT = 0

CCSDS_OMM_VERS = 2.0
CREATION_DATE  = 
ORIGINATOR     = 

OBJECT_NAME    = STARLINK-35682
OBJECT_ID      = 2025-262M
CENTER_NAME    = EARTH
REF_FRAME      = TEME
TIME_SYSTEM    = UTC
MEAN_ELEMENT_THEORY = SGP/SGP4

EPOCH          = 2025-12-01T20:00:01.999008
MEAN_MOTION    = 15.67293683
ECCENTRICITY   = .0001386
INCLINATION    = 42.9989
RA_OF_ASC_NODE = 135.1403
ARG_OF_PERICENTER = 283.2065
MEAN_ANOMALY   = 219.5147

EPHEMERIS_TYPE = 0
CLASSIFICATION_TYPE = U
NORAD_CAT_ID   = 66467
ELEMENT_SET_NO = 999
REV_AT_EPOCH   = 388
BSTAR          = -.20981E-1
MEAN_MOTION_DOT = -.2041264E-1
MEAN_MOTION_DDOT = 0

CCSDS_OMM_VERS = 2.0
CREATION_DATE  = 
ORIGINATOR     = 

OBJECT_NAME    = STARLINK-35331
OBJECT_ID      = 2025-262N
CENTER_NAME    = EARTH
REF_FRAME      = TEME
TIME_SYSTEM    = UTC
MEAN_ELEMENT_THEORY = SGP/SGP4

EPOCH          = 2025-12-01T20:00:01.999008
MEAN_MOTION    = 15.67296377
ECCENTRICITY   = .0001383
INCLINATION    = 42.9990
RA_OF_ASC_NODE = 135.1257
ARG_OF_PERICENTER = 286.3993
MEAN_ANOMALY   = 222.0720

EPHEMERIS_TYPE = 0
CLASSIFICATION_TYPE = U
NORAD_CAT_ID   = 66468
ELEMENT_SET_NO = 999
REV_AT_EPOCH   = 388
BSTAR          = -.21029E-1
MEAN_MOTION_DOT = -.2045545E-1
MEAN_MOTION_DDOT = 0

CCSDS_OMM_VERS = 2.0
CREATION_DATE  = 
ORIGINATOR     = 

OBJECT_NAME    = STARLINK-35451
OBJECT_ID      = 2025-262P
CENTER_NAME    = EARTH
REF_FRAME      = TEME
TIME_SYSTEM    = UTC
MEAN_ELEMENT_THEORY = SGP/SGP4

EPOCH          = 2025-12-01T20:00:01.999008
MEAN_MOTION    = 15.67290593
ECCENTRICITY   = .0001412
INCLINATION    = 42.9993
RA_OF_ASC_NODE = 135.1107
ARG_OF_PERICENTER = 283.2489
MEAN_ANOMALY   = 230.9777

EPHEMERIS_TYPE = 0
CLASSIFICATION_TYPE = U
NORAD_CAT_ID   = 66469
ELEMENT_SET_NO = 999
REV_AT_EPOCH   = 388
BSTAR          = -.20954E-1
MEAN_MOTION_DOT = -.2038737E-1
MEAN_MOTION_DDOT = 0

CCSDS_OMM_VERS = 2.0
CREATION_DATE  = 
ORIGINATOR     = 

OBJECT_NAME    = STARLINK-35655
OBJECT_ID      = 2025-262Q
CENTER_NAME    = EARTH
REF_FRAME      = TEME
TIME_SYSTEM    = UTC
MEAN_ELEMENT_THEORY = SGP/SGP4

EPOCH          = 2025-12-01T20:00:01.999008
MEAN_MOTION    = 15.67292819
ECCENTRICITY   = .0001381
INCLINATION    = 42.9988
RA_OF_ASC_NODE = 135.1209
ARG_OF_PERICENTER = 285.1936
MEAN_ANOMALY   = 225.1952

EPHEMERIS_TYPE = 0
CLASSIFICATION_TYPE = U
NORAD_CAT_ID   = 66470
ELEMENT_SET_NO = 999
REV_AT_EPOCH   = 388
BSTAR          = -.20964E-1
MEAN_MOTION_DOT = -.2039716E-1
MEAN_MOTION_DDOT = 0

CCSDS_OMM_VERS = 2.0
CREATION_DATE  = 
ORIGINATOR     = 

OBJECT_NAME    = STARLINK-35569
OBJECT_ID      = 2025-262R
CENTER_NAME    = EARTH
REF_FRAME      = TEME
TIME_SYSTEM    = UTC
MEAN_ELEMENT_THEORY = SGP/SGP4

EPOCH          = 2025-12-01T20:00:01.999008
MEAN_MOTION    = 15.67298366
ECCENTRICITY   = .0001354
INCLINATION    = 42.9991
RA_OF_ASC_NODE = 135.1160
ARG_OF_PERICENTER = 281.8573
MEAN_ANOMALY   = 230.4477

EPHEMERIS_TYPE = 0
CLASSIFICATION_TYPE = U
NORAD_CAT_ID   = 66471
ELEMENT_SET_NO = 999
REV_AT_EPOCH   = 388
BSTAR          = -.21048E-1
MEAN_MOTION_DOT = -.2047272E-1
MEAN_MOTION_DDOT = 0

