STARLINK-35424          
1 66460U 25262E   25335.83335647 -.02040104  00000+0 -20969-1 0  9995
2 66460  42.9990 135.1648 0001421 281.8222 211.3177 15.67291476  3887
STARLINK-35132          
1 66461U 25262F   25335.83335647 -.02047767  00000+0 -21051-1 0  9991
2 66461  42.9991 135.1602 0001431 285.1170 209.9306 15.67300694  3889
STARLINK-35499          
1 66462U 25262G   25335.83335647 -.02052852  00000+0 -21110-1 0  9999
2 66462  42.9992 135.1548 0001382 283.3953 213.5719 15.67302388  3885
STARLINK-35463          
1 66463U 25262H   25335.83335647 -.02053442  00000+0 -21119-1 0  9995
2 66463  42.9988 135.1447 0001334 286.2742 214.5301 15.67300767  3881
STARLINK-35435          
1 66464U 25262J   25335.83335647 -.02047268  00000+0 -21047-1 0  9995
2 66464  42.9992 135.1501 0001425 287.5821 211.3010 15.67299364  3883
STARLINK-35448          
1 66465U 25262K   25335.83335647 -.02051870  00000+0 -21101-1 0  9991
2 66465  42.9991 135.1354 0001359 283.6482 220.9896 15.67300171  3882
STARLINK-35388          
1 66466U 25262L   25335.83335647 -.02047229  00000+0 -21046-1 0  9993
2 66466  42.9991 135.1302 0001396 284.7193 221.8313 15.67299934  3886
STARLINK-35682          
1 66467U 25262M   25335.83335647 -.02041264  00000+0 -20981-1 0  9994
2 66467  42.9989 135.1403 0001386 283.2065 219.5147 15.67293683  3881
STARLINK-35331          
1 66468U 25262N   25335.83335647 -.02045545  00000+0 -21029-1 0  9995
2 66468  42.9990 135.1257 0001383 286.3993 222.0720 15.67296377  3881
STARLINK-35451          
1 66469U 25262P   25335.83335647 -.02038737  00000+0 -20954-1 0  9997
2 66469  42.9993 135.1107 0001412 283.2489 230.9777 15.67290593  3882
STARLINK-35655          
1 66470U 25262Q   25335.83335647 -.02039716  00000+0 -20964-1 0  9998
2 66470  42.9988 135.1209 0001381 285.1936 225.1952 15.67292819  3888
STARLINK-35569          
1 66471U 25262R   25335.83335647 -.02047272  00000+0 -21048-1 0  9999
2 66471  42.9991 135.1160 0001354 281.8573 230.4477 15.67298366  3883
